OBJECT_NAME,OBJECT_ID,EPOCH,MEAN_MOTION,ECCENTRICITY,INCLINATION,RA_OF_ASC_NODE,ARG_OF_PERICENTER,MEAN_ANOMALY,EPHEMERIS_TYPE,CLASSIFICATION_TYPE,NORAD_CAT_ID,ELEMENT_SET_NO,REV_AT_EPOCH,BSTAR,MEAN_MOTION_DOT,MEAN_MOTION_DDOT
SES-1,2010-016A,2026-06-10T05:58:03.207936,1.00271384,.00026731,0.0121,330.8096,109.8019,166.5224,0,U,36516,999,5896,0,-.97E-6,0
ASTRA 3B,2010-021A,2026-06-10T06:33:32.515200,1.00275169,.00044903,1.4527,83.6394,353.8219,303.0796,0,U,36581,999,5879,0,.155E-5,0
COMSATBW-2,2010-021B,2026-06-10T06:30:32.802336,1.00270362,.00026275,0.0270,45.1236,48.9183,275.4206,0,U,36582,999,5888,0,.105E-5,0
BEIDOU-2 G3,2010-024A,2026-06-09T20:33:32.509728,1.00272605,.00082768,4.4973,61.5460,351.4089,233.3626,0,U,36590,999,5869,0,-.121E-5,0
BADR-5,2010-025A,2026-06-10T04:52:48.409248,1.00266778,.00030222,0.0675,112.3566,80.5388,169.3962,0,U,36592,999,5314,0,.171E-5,0
COMS 1,2010-032A,2026-06-03T23:47:39.107040,1.00270643,.0001016,4.7750,75.5286,4.5847,297.3769,0,U,36744,999,5095,0,-.334E-5,0
ARABSAT-5A,2010-032B,2026-06-10T06:35:32.322624,1.00270658,.00055585,0.0766,54.3846,45.2537,288.3542,0,U,36745,999,5857,0,.171E-5,0
ECHOSTAR 15,2010-034A,2026-06-10T05:52:56.199360,1.00271724,.00017106,0.0173,34.2090,47.6658,146.1558,0,U,36792,999,5825,0,.17E-6,0
BEIDOU-2 IGSO-1,2010-036A,2026-06-09T22:24:14.958144,1.00274536,.0059281,54.3013,163.0252,225.1529,313.8504,0,U,36828,999,5802,0,-.29E-6,0
NILESAT 201,2010-037A,2026-06-10T06:24:48.352320,1.00271861,.0004398,0.0432,144.0368,325.2210,238.5873,0,U,36830,999,5830,0,-.4E-6,0
RASCOM-QAF 1R,2010-037B,2026-06-10T06:27:40.576896,1.00271171,.00067706,0.0069,29.5018,46.6764,282.2604,0,U,36831,999,5823,0,.36E-6,0
AEHF-1 (USA 214),2010-039A,2026-06-10T00:04:38.629632,1.00271280,.00039607,8.2005,68.1408,6.0643,215.2467,0,U,36868,999,5358,0,.162E-5,0
XM-5,2010-053A,2026-06-10T05:53:56.103936,1.00269710,.00029721,0.0654,273.5303,284.6282,33.7382,0,U,37185,999,5741,0,-.5E-7,0
BSAT-3B,2010-056B,2026-06-09T12:08:55.597920,1.00271760,.00013214,0.0791,249.8713,296.9420,3.1610,0,U,37207,999,5202,0,-.333E-5,0
BEIDOU-2 G4,2010-057A,2026-06-10T03:47:07.478880,1.00271667,.00049369,3.6284,68.9893,199.2959,207.0346,0,U,37210,999,5722,0,-.96E-6,0
SKYTERRA 1,2010-061A,2026-06-10T05:57:55.719648,1.00265424,.00025236,5.1097,50.8576,15.7006,180.1894,0,U,37218,999,5712,0,-.102E-5,0
HYLAS 1,2010-065A,2026-06-09T23:40:04.185984,1.00272921,.00009411,5.6243,73.1053,313.3129,240.7619,0,U,37237,999,681,0,.105E-5,0
INTELSAT 17 (IS-17),2010-065B,2026-06-10T04:57:21.638016,1.00272773,.00025629,0.0101,119.8670,329.9016,309.1443,0,U,37238,999,5317,0,.16E-6,0
BEIDOU-2 IGSO-2,2010-068A,2026-06-09T17:49:00.037920,1.00285942,.00551478,47.5626,271.9271,212.2269,148.8480,0,U,37256,999,5672,0,-.225E-5,0
EUTELSAT KA-SAT 9A,2010-069A,2026-06-10T03:51:38.494944,1.00272454,.00040241,0.0606,10.2646,122.2715,192.9096,0,U,37258,999,4393,0,.79E-6,0
HISPASAT 30W-5,2010-070A,2026-06-10T06:18:18.974304,1.00268664,.00051294,0.0320,146.8079,316.9789,219.4190,0,U,37264,999,5311,0,-.199E-5,0
KOREASAT 6,2010-070B,2026-06-10T05:08:38.959584,1.00271268,.00021725,0.0180,317.8858,129.6097,48.1375,0,U,37265,999,5670,0,-.94E-6,0
BEIDOU-2 IGSO-3,2011-013A,2026-06-09T14:15:47.178720,1.00270057,.00343795,62.3960,40.2253,184.4451,355.1654,0,U,37384,999,5558,0,-.192E-5,0
INTELSAT 28 (IS-28),2011-016A,2026-06-10T06:17:49.022016,1.00271780,.00037322,1.7874,82.7063,1.4267,237.2442,0,U,37392,999,5321,0,-.208E-5,0
YAHSAT 1A,2011-016B,2026-06-09T22:05:10.424256,1.00271196,.0002773,0.0174,353.2749,97.6716,191.1113,0,U,37393,999,4233,0,0,0
SBIRS GEO-1 (USA 230),2011-019A,2026-06-09T17:43:07.809312,1.00272585,.00021745,4.5203,53.1313,14.9566,147.5992,0,U,37481,999,5532,0,.115E-5,0
TELSTAR 14R,2011-021A,2026-06-10T01:00:49.358880,1.00271201,.00023031,0.0265,68.0297,354.4143,148.1812,0,U,37602,999,5576,0,-.262E-5,0
GSAT-8,2011-022A,2026-06-10T04:59:55.226976,1.00271389,.00022742,2.1121,81.9066,207.7408,98.9733,0,U,37605,999,5314,0,.102E-5,0
ST-2,2011-022B,2026-06-10T03:26:34.873152,1.00268035,.00016,0.0139,285.2545,168.9865,303.9223,0,U,37606,999,5520,0,-.193E-5,0
ZHONGXING-10,2011-026A,2026-06-10T03:25:57.432576,1.00270284,.00035981,1.0275,84.2902,0.0991,311.1383,0,U,37677,999,5492,0,-.171E-5,0
SES-3,2011-035A,2026-06-10T06:06:54.855648,1.00270641,.00025657,1.3079,83.1617,351.3488,172.8258,0,U,37748,999,5452,0,-.84E-6,0
KAZSAT-2,2011-035B,2026-06-10T01:43:34.039200,1.00269869,.00014047,0.0339,246.8817,262.6053,221.3359,0,U,37749,999,5332,0,-.18E-5,0
